$$SOE
2460154.500000000, A.D. 2023-Jul-29 00:00:00.0000, -3.804756377388242E+08, 2.453515155851310E+08, 5.128073551616898E+07,
2460161.500000000, A.D. 2023-Aug-05 00:00:00.0000, -3.851459904009759E+08, 2.363178760648167E+08, 5.209266120165519E+07,
2460168.500000000, A.D. 2023-Aug-12 00:00:00.0000, -3.896177190778893E+08, 2.271623229098257E+08, 5.287771604965223E+07,
2460175.500000000, A.D. 2023-Aug-19 00:00:00.0000, -3.938875005956575E+08, 2.178889828729753E+08, 5.363535694716622E+07,
2460182.500000000, A.D. 2023-Aug-26 00:00:00.0000, -3.979520777783476E+08, 2.085020829653651E+08, 5.436504882035536E+07,
2460189.500000000, A.D. 2023-Sep-02 00:00:00.0000, -4.018082625583279E+08, 1.990059504427580E+08, 5.506626508297000E+07,
2460196.500000000, A.D. 2023-Sep-09 00:00:00.0000, -4.054529391492349E+08, 1.894050125909133E+08, 5.573848808580197E+07,
2460203.500000000, A.D. 2023-Sep-16 00:00:00.0000, -4.088830671117873E+08, 1.797037962461908E+08, 5.638120954689223E+07,
2460210.500000000, A.D. 2023-Sep-23 00:00:00.0000, -4.120956838941970E+08, 1.699069273323203E+08, 5.699393094762116E+07,
2460217.500000000, A.D. 2023-Sep-30 00:00:00.0000, -4.150879071846882E+08, 1.600191315977206E+08, 5.757616402297512E+07,
2460224.500000000, A.D. 2023-Oct-07 00:00:00.0000, -4.178569394287938E+08, 1.500452360042481E+08, 5.812743151750055E+07,
2460231.500000000, A.D. 2023-Oct-14 00:00:00.0000, -4.204000734705737E+08, 1.399901674494369E+08, 5.864726784100153E+07,
2460238.500000000, A.D. 2023-Oct-21 00:00:00.0000, -4.227146960845077E+08, 1.298589504198962E+08, 5.913521945861102E+07,
2460245.500000000, A.D. 2023-Oct-28 00:00:00.0000, -4.247982908170805E+08, 1.196567058281820E+08, 5.959084533003286E+07,
2460252.500000000, A.D. 2023-Nov-04 00:00:00.0000, -4.266484413857566E+08, 1.093886502553502E+08, 6.001371744949707E+07,
2460259.500000000, A.D. 2023-Nov-11 00:00:00.0000, -4.282628354552992E+08, 9.906009499363509E+07, 6.040342142115158E+07,
2460266.500000000, A.D. 2023-Nov-18 00:00:00.0000, -4.296392685678223E+08, 8.867644481928504E+07, 6.075955704434735E+07,
2460273.500000000, A.D. 2023-Nov-25 00:00:00.0000, -4.307756481489635E+08, 7.824319651201659E+07, 6.108173890367421E+07,
2460280.500000000, A.D. 2023-Dec-02 00:00:00.0000, -4.316699975570245E+08, 6.776593710382745E+07, 6.136959695986877E+07,
2460287.500000000, A.D. 2023-Dec-09 00:00:00.0000, -4.323204600919166E+08, 5.725034179263383E+07, 6.162277712916077E+07,
2460294.500000000, A.D. 2023-Dec-16 00:00:00.0000, -4.327253026700812E+08, 4.670217152827355E+07, 6.184094182500790E+07,
2460301.500000000, A.D. 2023-Dec-23 00:00:00.0000, -4.328829188089557E+08, 3.612727095362695E+07, 6.202377048531207E+07,
2460308.500000000, A.D. 2023-Dec-30 00:00:00.0000, -4.327918322515907E+08, 2.553156774478779E+07, 6.217096029216316E+07,
2460315.500000000, A.D. 2024-Jan-06 00:00:00.0000, -4.324507029947782E+08, 1.492107098312762E+07, 6.228222705203427E+07,
2460322.500000000, A.D. 2024-Jan-13 00:00:00.0000, -4.318583325398828E+08, 4.301866746394802E+06, 6.235730579632894E+07,
2460329.500000000, A.D. 2024-Jan-20 00:00:00.0000, -4.310136671329650E+08, -6.319886002006799E+06, 6.239595124059296E+07,
2460336.500000000, A.D. 2024-Jan-27 00:00:00.0000, -4.299158010133547E+08, -1.693795857980546E+07, 6.239793834021814E+07,
2460343.500000000, A.D. 2024-Feb-03 00:00:00.0000, -4.285639800921916E+08, -2.754605576275488E+07, 6.236306290337774E+07,
2460350.500000000, A.D. 2024-Feb-10 00:00:00.0000, -4.269576057764897E+08, -3.813781926556404E+07, 6.229114221105935E+07,
2460357.500000000, A.D. 2024-Feb-17 00:00:00.0000, -4.250962387904511E+08, -4.870683152054002E+07, 6.218201563081855E+07,
2460364.500000000, A.D. 2024-Feb-24 00:00:00.0000, -4.229796029466442E+08, -5.924661974081260E+07, 6.203554522048065E+07,
2460371.500000000, A.D. 2024-Mar-02 00:00:00.0000, -4.206075888254899E+08, -6.975066030239326E+07, 6.185161631460970E+07,
2460378.500000000, A.D. 2024-Mar-09 00:00:00.0000, -4.179802572117608E+08, -8.021238350927553E+07, 6.163013807400349E+07,
2460385.500000000, A.D. 2024-Mar-16 00:00:00.0000, -4.150978418799144E+08, -9.062517854488242E+07, 6.137104397614822E+07,
2460392.500000000, A.D. 2024-Mar-23 00:00:00.0000, -4.119607518181449E+08, -1.009823975004988E+08, 6.107429234464297E+07,
2460399.500000000, A.D. 2024-Mar-30 00:00:00.0000, -4.085695751180081E+08, -1.112773585068881E+08, 6.073986711863995E+07,
2460406.500000000, A.D. 2024-Apr-06 00:00:00.0000, -4.049250842604853E+08, -1.215033513360479E+08, 6.036777856146137E+07,
2460413.500000000, A.D. 2024-Apr-13 00:00:00.0000, -4.010282392346928E+08, -1.316536446340486E+08, 5.995806364909700E+07,
2460420.500000000, A.D. 2024-Apr-20 00:00:00.0000, -3.968801894258199E+08, -1.417214921037487E+08, 5.951078644223519E+07,
2460427.500000000, A.D. 2024-Apr-27 00:00:00.0000, -3.924822757723300E+08, -1.517001381950177E+08, 5.902603853236334E+07,
2460434.500000000, A.D. 2024-May-04 00:00:00.0000, -3.878360330895655E+08, -1.615828240028850E+08, 5.850393949417009E+07,
2460441.500000000, A.D. 2024-May-11 00:00:00.0000, -3.829431923085861E+08, -1.713627934710588E+08, 5.794463731248558E+07,
2460448.500000000, A.D. 2024-May-18 00:00:00.0000, -3.778056825357943E+08, -1.810332998725632E+08, 5.734830877660237E+07,
2460455.500000000, A.D. 2024-May-25 00:00:00.0000, -3.724256328957046E+08, -1.905876125662237E+08, 5.671515983758777E+07,
2460462.500000000, A.D. 2024-Jun-01 00:00:00.0000, -3.668053740837691E+08, -2.000190240767851E+08, 5.604542591670784E+07,
2460469.500000000, A.D. 2024-Jun-08 00:00:00.0000, -3.609474393696008E+08, -2.093208575108703E+08, 5.533937213869458E+07,
2460476.500000000, A.D. 2024-Jun-15 00:00:00.0000, -3.548545646377335E+08, -2.184864737517684E+08, 5.459729349588007E+07,
2460483.500000000, A.D. 2024-Jun-22 00:00:00.0000, -3.485296884574620E+08, -2.275092772448375E+08, 5.381951512941588E+07,
2460490.500000000, A.D. 2024-Jun-29 00:00:00.0000, -3.419759542899002E+08, -2.363827221811296E+08, 5.300639277132203E+07,
2460497.500000000, A.D. 2024-Jul-06 00:00:00.0000, -3.351967121760308E+08, -2.451003215375054E+08, 5.215831290121328E+07,
2460504.500000000, A.D. 2024-Jul-13 00:00:00.0000, -3.281955179470203E+08, -2.536556561343650E+08, 5.127569266842639E+07,
2460511.500000000, A.D. 2024-Jul-20 00:00:00.0000, -3.209761319320785E+08, -2.620423825448287E+08, 5.035897985392003E+07,
2460518.500000000, A.D. 2024-Jul-27 00:00:00.0000, -3.135425178088810E+08, -2.702542407967135E+08, 4.940865285172053E+07,
2460525.500000000, A.D. 2024-Aug-03 00:00:00.0000, -3.058988413138537E+08, -2.782850622247381E+08, 4.842522061238283E+07,
2460532.500000000, A.D. 2024-Aug-10 00:00:00.0000, -2.980494686391638E+08, -2.861287774598883E+08, 4.740922253148591E+07,
2460539.500000000, A.D. 2024-Aug-17 00:00:00.0000, -2.899989644638281E+08, -2.937794245154807E+08, 4.636122827953471E+07,
2460546.500000000, A.D. 2024-Aug-24 00:00:00.0000, -2.817520895872165E+08, -3.012311569717613E+08, 4.528183756791604E+07,
2460553.500000000, A.D. 2024-Aug-31 00:00:00.0000, -2.733137980464546E+08, -3.084782522984815E+08, 4.417167983426705E+07,
2460560.500000000, A.D. 2024-Sep-07 00:00:00.0000, -2.646892333500744E+08, -3.155151201653011E+08, 4.303141382294154E+07,
2460567.500000000, A.D. 2024-Sep-14 00:00:00.0000, -2.558837237404613E+08, -3.223363097187105E+08, 4.186172713284251E+07,
2460574.500000000, A.D. 2024-Sep-21 00:00:00.0000, -2.469027785108608E+08, -3.289365153869808E+08, 4.066333595097165E+07,
2460581.500000000, A.D. 2024-Sep-28 00:00:00.0000, -2.377520858617474E+08, -3.353105844175421E+08, 3.943698475157036E+07,
2460588.500000000, A.D. 2024-Oct-05 00:00:00.0000, -2.284375086282991E+08, -3.414535261258768E+08, 3.818344562453036E+07,
2460595.500000000, A.D. 2024-Oct-12 00:00:00.0000, -2.189650782459241E+08, -3.473605198569076E+08, 3.690351751079622E+07,
2460602.500000000, A.D. 2024-Oct-19 00:00:00.0000, -2.093409887136006E+08, -3.530269219083707E+08, 3.559802548446487E+07,
2460609.500000000, A.D. 2024-Oct-26 00:00:00.0000, -1.995715905970254E+08, -3.584482721942484E+08, 3.426782002006619E+07,
2460616.500000000, A.D. 2024-Nov-02 00:00:00.0000, -1.896633848239225E+08, -3.636203007728740E+08, 3.291377621014678E+07,
2460623.500000000, A.D. 2024-Nov-09 00:00:00.0000, -1.796230161852356E+08, -3.685389341962438E+08, 3.153679292701441E+07,
2460630.500000000, A.D. 2024-Nov-16 00:00:00.0000, -1.694572665282636E+08, -3.732003016588138E+08, 3.013779192773513E+07,
2460637.500000000, A.D. 2024-Nov-23 00:00:00.0000, -1.591730476085981E+08, -3.776007409749595E+08, 2.871771689579587E+07,
2460644.500000000, A.D. 2024-Nov-30 00:00:00.0000, -1.487773934078407E+08, -3.817368044076722E+08, 2.727753239885677E+07,
2460651.500000000, A.D. 2024-Dec-07 00:00:00.0000, -1.382774515142980E+08, -3.856052639086778E+08, 2.581822276071167E+07,
2460658.500000000, A.D. 2024-Dec-14 00:00:00.0000, -1.276804742732263E+08, -3.892031145274889E+08, 2.434079101303634E+07,
2460665.500000000, A.D. 2024-Dec-21 00:00:00.0000, -1.169938120437772E+08, -3.925275772121345E+08, 2.284625804064943E+07,
2460672.500000000, A.D. 2024-Dec-28 00:00:00.0000, -1.062249066093519E+08, -3.955761039532822E+08, 2.133566149956365E+07,
2460679.500000000, A.D. 2025-Jan-04 00:00:00.0000, -9.538128216540782E+07, -3.983463828832985E+08, 1.981005446703848E+07,
2460686.500000000, A.D. 2025-Jan-11 00:00:00.0000, -8.447053572912416E+07, -4.008363416590761E+08, 1.827050412985601E+07,
2460693.500000000, A.D. 2025-Jan-18 00:00:00.0000, -7.350032791167031E+07, -4.030441500364168E+08, 1.671809052339056E+07,
2460700.500000000, A.D. 2025-Jan-25 00:00:00.0000, -6.247837383384747E+07, -4.049682221005751E+08, 1.515390526392922E+07,
2460707.500000000, A.D. 2025-Feb-01 00:00:00.0000, -5.141243402008827E+07, -4.066072181745604E+08, 1.357905025799125E+07,
2460714.500000000, A.D. 2025-Feb-08 00:00:00.0000, -4.031030523683371E+07, -4.079600463790298E+08, 1.199463638852847E+07,
2460721.500000000, A.D. 2025-Feb-15 00:00:00.0000, -2.917981127115097E+07, -4.090258638599958E+08, 1.040178217752567E+07,
$$EOE